 Automated mail xmit by MAIL_REQUEST, PID=   7160 Sat Oct 11 04:53:17 2014
++++++++++++++++++++++++++++++++ (part 1 of 1)  
++++++++++++++++++++++++++++++++ +++++++++++++++++++++++++++++++

*******************************************************************************
 Revised: Jun 05, 2014            Enceladus / (Saturn)                      602
                           http://ssd.jpl.nasa.gov/?sat_phys_par
                             http://ssd.jpl.nasa.gov/?sat_elem

 SATELLITE PHYSICAL PROPERTIES:
  Mean Radius (km)        = 252.3   +- 0.6   Density (g/cm^3) =  1.606 +- 0.012
  Mass (10^22 g)          =  10.805          Geometric Albedo =  1.04
  GM (km^3/s^2)           =   7.206 +- 0.011 V(1,0)           =  +2.2

 SATELLITE ORBITAL DATA (mean elements referred to local Laplace plane):
  Semi-major axis, a (km) = 238.04(10^3)    Orbital period    = 1.370218 d
  Eccentricity, e         = 0.0047          Rotational period = Synchronous
  Inclination, i  (deg)   = 0.009
*******************************************************************************
 
 
*******************************************************************************
Ephemeris / MAIL_REQUEST Sat Oct 11 04:53:17 2014 Pasadena, USA  / Horizons    
*******************************************************************************
Target body name: Enceladus (602)                 {source: SAT365}
Center body name: Sun (10)                        {source: DE-0431LE-0431}
Center-site name: BODY CENTER
*******************************************************************************
Start time      : A.D. 2014-Sep-01 10:00:00.0000 CT 
Stop  time      : A.D. 2014-Oct-01 10:00:00.0000 CT 
Step-size       : 2 steps
*******************************************************************************
Center geodetic : 0.00000000,0.00000000,0.0000000 {E-lon(deg),Lat(deg),Alt(km)} Center cylindric: 0.00000000,0.00000000,0.0000000 {E-lon(deg),Dxy(km),Dz(km)}
Center radii    : 696000.0 x 696000.0 x 696000.0 k{Equator, meridian, pole}    
Output units    : AU-D                                                         
Output format   : 03
Reference frame : ICRF/J2000.0                                                 
Output type     : GEOMETRIC cartesian states
Coordinate systm: Ecliptic and Mean Equinox of Reference Epoch                 
*******************************************************************************
JDCT ,   , X, Y, Z, VX, VY, VZ, LT, RG, RR,
*******************************************************************************
$$SOE
2456901.916666667, A.D. 2014-Sep-01 10:00:00.0000, -5.928862698623343E+00, -7.959018349663760E+00,  3.740474320883476E-01,  8.295360340851390E-05, -8.499074360203474E-03,  2.985238645491669E-03,  5.736031781767831E-02,  9.931631158619593E+00,  6.873905003340553E-03, 2456916.916666667, A.D. 2014-Sep-16 10:00:00.0000, -5.865810851714953E+00, -8.008684944989790E+00,  3.722171049849584E-01, -1.606734385335886E-03, -6.930156560605238E-03,  2.347081213891545E-03,  5.737427848141737E-02,  9.934048372614582E+00,  6.623670613750933E-03, 2456931.916666667, A.D. 2014-Oct-01 10:00:00.0000, -5.802256505798512E+00, -8.057934873349264E+00,  3.704174391532655E-01, -2.675516490278240E-03, -4.970717074100173E-03,  1.444232472796834E-03,  5.738834252164048E-02,  9.936483485692927E+00,  5.647140298068423E-03, $$EOE
*******************************************************************************
Coordinate system description:

  Ecliptic and Mean Equinox of Reference Epoch

    Reference epoch: J2000.0
    xy-plane: plane of the Earth's orbit at the reference epoch
    x-axis  : out along ascending node of instantaneous plane of the Earth's
              orbit and the Earth's mean equator at the reference epoch
    z-axis  : perpendicular to the xy-plane in the directional (+ or -) sense
              of Earth's north pole at the reference epoch.

Symbol meaning [1 au=149597870.700 km, 1 day=86400.0 s]:

    JDCT     Epoch Julian Date, Coordinate Time
      X      x-component of position vector (AU)                               
      Y      y-component of position vector (AU)                               
      Z      z-component of position vector (AU)                               
      VX     x-component of velocity vector (AU/day)                           
      VY     y-component of velocity vector (AU/day)                           
      VZ     z-component of velocity vector (AU/day)                           
      LT     One-way down-leg Newtonian light-time (day)                       
      RG     Range; distance from coordinate center (AU)                       
      RR     Range-rate; radial velocity wrt coord. center (AU/day)            

Geometric states/elements have no aberration corrections applied.

 Computations by ...
     Solar System Dynamics Group, Horizons On-Line Ephemeris System
     4800 Oak Grove Drive, Jet Propulsion Laboratory
     Pasadena, CA  91109   USA
     Information: http://ssd.jpl.nasa.gov/
     Connect    : telnet://ssd.jpl.nasa.gov:6775  (via browser)
                  telnet ssd.jpl.nasa.gov 6775    (via command-line)
     Author     : Jon.Giorgini@jpl.nasa.gov
*******************************************************************************
